0 COSMOS 585
1 06825U 73064A   13281.79331606 -.00000014  00000-0  15685-4 0  8209
2 06825 074.0247 057.0240 0018449 173.1539 291.5968 12.68173610855902
0 COSMOS 585
1 06825U 73064A   13283.84642443 -.00000035  00000-0 -93364-4 0  8216
2 06825 074.0251 054.2011 0018403 170.0049 304.8670 12.68173991856163
0 COSMOS 585
1 06825U 73064A   13286.12074025 -.00000038  00000-0 -10984-3 0  8225
2 06825 074.0258 051.0742 0018358 166.3135 248.2447 12.68174016856453
0 COSMOS 585
1 06825U 73064A   13288.49039309 -.00000005  00000-0  59607-4 0  8233
2 06825 074.0258 047.8153 0018246 162.6926 266.6593 12.68173596856756
0 COSMOS 585
1 06825U 73064A   13290.78744160  .00000012  00000-0  14953-3 0  8248
2 06825 074.0263 044.6585 0018237 159.1924 313.5929 12.68173589857045
0 COSMOS 585
1 06825U 73064A   13293.38235206 -.00000006  00000-0  53918-4 0  8253
2 06825 074.0262 041.0912 0018202 154.9771 280.6438 12.68173698857370
0 COSMOS 585
1 06825U 73064A   13295.51216171 -.00000000  00000-0  84927-4 0  8269
2 06825 074.0263 038.1631 0018157 151.6388 284.1593 12.68174014857647
